start=new Date('2021-12-23T00:00:00.000Z').valueOf();
sats=[{"MEAN_ELEMENT_THEORY":"SGP4","EPOCH":"2021-12-22T12:11:39.842592","DECAY_DATE":null,"SITE":"AFETR","TIME_SYSTEM":"UTC","LAUNCH_DATE":"2020-10-24","CENTER_NAME":"EARTH","INCLINATION":"53.0547","OBJECT_NAME":"STARLINK-1946","SEMIMAJOR_AXIS":"6925.360","OBJECT_TYPE":"PAYLOAD","ECCENTRICITY":"0.00013630","REV_AT_EPOCH":"6462","MEAN_MOTION_DOT":"-0.00001315","APOAPSIS":"548.169","TLE_LINE2":"2 46776  53.0547  41.7822 0001363  82.2124 277.9019 15.06396281 64626","COUNTRY_CODE":"US","CLASSIFICATION_TYPE":"U","MEAN_ANOMALY":"277.9019","PERIOD":"95.592","NORAD_CAT_ID":"46776","MEAN_MOTION":"15.06396281","FILE":"3247523","RA_OF_ASC_NODE":"41.7822","GP_ID":"192218597","BSTAR":"-0.00006942300000","MEAN_MOTION_DDOT":"0.0000000000000","TLE_LINE1":"1 46776U 20074AP  21356.50810003 -.00001315  00000-0 -69423-4 0  9997","REF_FRAME":"TEME","RCS_SIZE":"LARGE","PERIAPSIS":"546.281","EPHEMERIS_TYPE":"0","ARG_OF_PERICENTER":"82.2124","OBJECT_ID":"2020-074AP","ELEMENT_SET_NO":"999"},{"OBJECT_ID":"2020-074AS","ELEMENT_SET_NO":"999","ARG_OF_PERICENTER":"66.0295","EPHEMERIS_TYPE":"0","PERIAPSIS":"546.263","RCS_SIZE":"LARGE","REF_FRAME":"TEME","TLE_LINE1":"1 46779U 20074AS  21356.52331340 -.00001276  00000-0 -66779-4 0  9991","MEAN_MOTION_DDOT":"0.0000000000000","BSTAR":"-0.00006677900000","GP_ID":"192219348","RA_OF_ASC_NODE":"16.7117","FILE":"3247523","MEAN_MOTION":"15.06395660","NORAD_CAT_ID":"46779","PERIOD":"95.592","MEAN_ANOMALY":"294.0839","CLASSIFICATION_TYPE":"U","COUNTRY_CODE":"US","TLE_LINE2":"2 46779  53.0561  16.7117 0001392  66.0295 294.0839 15.06395660 64973","APOAPSIS":"548.191","MEAN_MOTION_DOT":"-0.00001276","REV_AT_EPOCH":"6497","ECCENTRICITY":"0.00013920","OBJECT_TYPE":"PAYLOAD","SEMIMAJOR_AXIS":"6925.362","OBJECT_NAME":"STARLINK-1798","INCLINATION":"53.0561","CENTER_NAME":"EARTH","LAUNCH_DATE":"2020-10-24","TIME_SYSTEM":"UTC","SITE":"AFETR","DECAY_DATE":null,"EPOCH":"2021-12-22T12:33:34.277760","MEAN_ELEMENT_THEORY":"SGP4"},{"ELEMENT_SET_NO":"999","OBJECT_ID":"2020-074AT","ARG_OF_PERICENTER":"61.9266","EPHEMERIS_TYPE":"0","PERIAPSIS":"546.166","RCS_SIZE":"LARGE","REF_FRAME":"TEME","TLE_LINE1":"1 46780U 20074AT  21356.51226051 -.00001750  00000-0 -98633-4 0  9995","MEAN_MOTION_DDOT":"0.0000000000000","BSTAR":"-0.00009863300000","GP_ID":"192218096","RA_OF_ASC_NODE":"16.7665","FILE":"3247523","MEAN_MOTION":"15.06381950","PERIOD":"95.593","NORAD_CAT_ID":"46780","MEAN_ANOMALY":"298.1884","CLASSIFICATION_TYPE":"U","COUNTRY_CODE":"US","TLE_LINE2":"2 46780  53.0566  16.7665 0001593  61.9266 298.1884 15.06381950 64975","APOAPSIS":"548.372","MEAN_MOTION_DOT":"-0.00001750","REV_AT_EPOCH":"6497","ECCENTRICITY":"0.00015930","OBJECT_TYPE":"PAYLOAD","SEMIMAJOR_AXIS":"6925.404","OBJECT_NAME":"STARLINK-1832","INCLINATION":"53.0566","CENTER_NAME":"EARTH","TIME_SYSTEM":"UTC","LAUNCH_DATE":"2020-10-24","SITE":"AFETR","DECAY_DATE":null,"EPOCH":"2021-12-22T12:17:39.308064","MEAN_ELEMENT_THEORY":"SGP4"},{"INCLINATION":"53.0559","LAUNCH_DATE":"2020-10-24","TIME_SYSTEM":"UTC","CENTER_NAME":"EARTH","DECAY_DATE":null,"EPOCH":"2021-12-22T12:42:51.219936","SITE":"AFETR","MEAN_ELEMENT_THEORY":"SGP4","MEAN_MOTION_DOT":"-0.00000769","TLE_LINE2":"2 46781  53.0559  26.6910 0001446  71.6465 288.4681 15.06393512 64847","APOAPSIS":"548.235","ECCENTRICITY":"0.00014460","OBJECT_TYPE":"PAYLOAD","REV_AT_EPOCH":"6484","SEMIMAJOR_AXIS":"6925.368","OBJECT_NAME":"STARLINK-1834","FILE":"3247523","RA_OF_ASC_NODE":"26.6910","PERIOD":"95.593","NORAD_CAT_ID":"46781","MEAN_MOTION":"15.06393512","MEAN_ANOMALY":"288.4681","COUNTRY_CODE":"US","CLASSIFICATION_TYPE":"U","OBJECT_ID":"2020-074AU","ELEMENT_SET_NO":"999","RCS_SIZE":"LARGE","EPHEMERIS_TYPE":"0","ARG_OF_PERICENTER":"71.6465","PERIAPSIS":"546.232","REF_FRAME":"TEME","BSTAR":"-0.00003275700000","GP_ID":"192217845","TLE_LINE1":"1 46781U 20074AU  21356.52975949 -.00000769  00000-0 -32757-4 0  9998","MEAN_MOTION_DDOT":"0.0000000000000"},{"SEMIMAJOR_AXIS":"6925.394","OBJECT_NAME":"STARLINK-1835","APOAPSIS":"548.201","TLE_LINE2":"2 46782  53.0542  17.1094 0001360  62.5914 297.5213 15.06385213 64965","MEAN_MOTION_DOT":"-0.00002191","REV_AT_EPOCH":"6496","OBJECT_TYPE":"PAYLOAD","ECCENTRICITY":"0.00013600","SITE":"AFETR","EPOCH":"2021-12-22T10:26:11.340672","DECAY_DATE":null,"MEAN_ELEMENT_THEORY":"SGP4","INCLINATION":"53.0542","CENTER_NAME":"EARTH","LAUNCH_DATE":"2020-10-24","TIME_SYSTEM":"UTC","REF_FRAME":"TEME","MEAN_MOTION_DDOT":"0.0000000000000","TLE_LINE1":"1 46782U 20074AV  21356.43485348 -.00002191  00000-0 -12831-3 0  9999","GP_ID":"192219098","BSTAR":"-0.00012831000000","ELEMENT_SET_NO":"999","OBJECT_ID":"2020-074AV","PERIAPSIS":"546.317","ARG_OF_PERICENTER":"62.5914","EPHEMERIS_TYPE":"0","RCS_SIZE":"LARGE","MEAN_ANOMALY":"297.5213","CLASSIFICATION_TYPE":"U","COUNTRY_CODE":"US","RA_OF_ASC_NODE":"17.1094","FILE":"3247523","MEAN_MOTION":"15.06385213","PERIOD":"95.593","NORAD_CAT_ID":"46782"},{"ELEMENT_SET_NO":"999","OBJECT_ID":"2020-074AW","PERIAPSIS":"546.163","ARG_OF_PERICENTER":"63.6801","EPHEMERIS_TYPE":"0","RCS_SIZE":"LARGE","REF_FRAME":"TEME","MEAN_MOTION_DDOT":"0.0000000000000","TLE_LINE1":"1 46783U 20074AW  21356.44958915 -.00002247  00000-0 -13206-3 0  9995","GP_ID":"192223104","BSTAR":"-0.00013206000000","RA_OF_ASC_NODE":"17.0528","FILE":"3247614","MEAN_MOTION":"15.06390846","NORAD_CAT_ID":"46783","PERIOD":"95.593","MEAN_ANOMALY":"296.4348","CLASSIFICATION_TYPE":"U","COUNTRY_CODE":"US","APOAPSIS":"548.320","TLE_LINE2":"2 46783  53.0550  17.0528 0001557  63.6801 296.4348 15.06390846 64696","MEAN_MOTION_DOT":"-0.00002247","REV_AT_EPOCH":"6469","OBJECT_TYPE":"PAYLOAD","ECCENTRICITY":"0.00015570","SEMIMAJOR_AXIS":"6925.377","OBJECT_NAME":"STARLINK-1851","INCLINATION":"53.0550","CENTER_NAME":"EARTH","LAUNCH_DATE":"2020-10-24","TIME_SYSTEM":"UTC","SITE":"AFETR","EPOCH":"2021-12-22T10:47:24.502560","DECAY_DATE":null,"MEAN_ELEMENT_THEORY":"SGP4"},{"RA_OF_ASC_NODE":"17.0234","FILE":"3247523","MEAN_MOTION":"15.06396403","NORAD_CAT_ID":"46784","PERIOD":"95.592","MEAN_ANOMALY":"296.0322","CLASSIFICATION_TYPE":"U","COUNTRY_CODE":"US","OBJECT_ID":"2020-074AX","ELEMENT_SET_NO":"999","PERIAPSIS":"546.247","ARG_OF_PERICENTER":"64.0812","EPHEMERIS_TYPE":"0","RCS_SIZE":"LARGE","REF_FRAME":"TEME","MEAN_MOTION_DDOT":"0.0000000000000","TLE_LINE1":"1 46784U 20074AX  21356.45327836 -.00001572  00000-0 -86689-4 0  9995","GP_ID":"192217596","BSTAR":"-0.00008668900000","INCLINATION":"53.0579","CENTER_NAME":"EARTH","TIME_SYSTEM":"UTC","LAUNCH_DATE":"2020-10-24","SITE":"AFETR","EPOCH":"2021-12-22T10:52:43.250304","DECAY_DATE":null,"MEAN_ELEMENT_THEORY":"SGP4","APOAPSIS":"548.202","TLE_LINE2":"2 46784  53.0579  17.0234 0001412  64.0812 296.0322 15.06396403 64962","MEAN_MOTION_DOT":"-0.00001572","REV_AT_EPOCH":"6496","ECCENTRICITY":"0.00014120","OBJECT_TYPE":"PAYLOAD","SEMIMAJOR_AXIS":"6925.360","OBJECT_NAME":"STARLINK-1882"},{"REV_AT_EPOCH":"6497","OBJECT_TYPE":"PAYLOAD","ECCENTRICITY":"0.00025650","APOAPSIS":"549.037","TLE_LINE2":"2 46785  53.0539  16.8106 0002565  43.8551 316.2641 15.06384602 64977","MEAN_MOTION_DOT":"-0.00003062","OBJECT_NAME":"STARLINK-1883","SEMIMAJOR_AXIS":"6925.396","CENTER_NAME":"EARTH","TIME_SYSTEM":"UTC","LAUNCH_DATE":"2020-10-24","INCLINATION":"53.0539","MEAN_ELEMENT_THEORY":"SGP4","SITE":"AFETR","EPOCH":"2021-12-22T12:07:01.319232","DECAY_DATE":null,"PERIAPSIS":"545.484","EPHEMERIS_TYPE":"0","ARG_OF_PERICENTER":"43.8551","RCS_SIZE":"LARGE","OBJECT_ID":"2020-074AY","ELEMENT_SET_NO":"999","MEAN_MOTION_DDOT":"0.0000000000000","TLE_LINE1":"1 46785U 20074AY  21356.50487638 -.00003062  00000-0 -18678-3 0  9997","GP_ID":"192218346","BSTAR":"-0.00018678000000","REF_FRAME":"TEME","MEAN_MOTION":"15.06384602","NORAD_CAT_ID":"46785","PERIOD":"95.593","RA_OF_ASC_NODE":"16.8106","FILE":"3247523","CLASSIFICATION_TYPE":"U","COUNTRY_CODE":"US","MEAN_ANOMALY":"316.2641"},{"ELEMENT_SET_NO":"999","OBJECT_ID":"2020-074AZ","EPHEMERIS_TYPE":"0","ARG_OF_PERICENTER":"168.5011","PERIAPSIS":"545.395","RCS_SIZE":"LARGE","REF_FRAME":"TEME","TLE_LINE1":"1 46786U 20074AZ  21356.41825551 -.00001486  00000-0 -80826-4 0  9991","MEAN_MOTION_DDOT":"0.0000000000000","BSTAR":"-0.00008082600000","GP_ID":"192218598","RA_OF_ASC_NODE":"357.1794","FILE":"3247523","MEAN_MOTION":"15.06397332","NORAD_CAT_ID":"46786","PERIOD":"95.592","MEAN_ANOMALY":"191.6039","CLASSIFICATION_TYPE":"U","COUNTRY_CODE":"US","TLE_LINE2":"2 46786  53.0554 357.1794 0002638 168.5011 191.6039 15.06397332 65247","APOAPSIS":"549.049","MEAN_MOTION_DOT":"-0.00001486","REV_AT_EPOCH":"6524","OBJECT_TYPE":"PAYLOAD","ECCENTRICITY":"0.00026380","SEMIMAJOR_AXIS":"6925.357","OBJECT_NAME":"STARLINK-1893","INCLINATION":"53.0554","CENTER_NAME":"EARTH","TIME_SYSTEM":"UTC","LAUNCH_DATE":"2020-10-24","SITE":"AFETR","DECAY_DATE":null,"EPOCH":"2021-12-22T10:02:17.276064","MEAN_ELEMENT_THEORY":"SGP4"},{"PERIAPSIS":"544.568","ARG_OF_PERICENTER":"130.9861","EPHEMERIS_TYPE":"0","RCS_SIZE":"LARGE","OBJECT_ID":"2020-074BA","ELEMENT_SET_NO":"999","MEAN_MOTION_DDOT":"0.0000000000000","TLE_LINE1":"1 46787U 20074BA  21356.41089272 -.00001380  00000-0 -73663-4 0  9998","GP_ID":"192219349","BSTAR":"-0.00007366300000","REF_FRAME":"TEME","MEAN_MOTION":"15.06397014","NORAD_CAT_ID":"46787","PERIOD":"95.592","RA_OF_ASC_NODE":"357.2114","FILE":"3247523","CLASSIFICATION_TYPE":"U","COUNTRY_CODE":"US","MEAN_ANOMALY":"229.1460","REV_AT_EPOCH":"6524","OBJECT_TYPE":"PAYLOAD","ECCENTRICITY":"0.00038330","APOAPSIS":"549.877","TLE_LINE2":"2 46787  53.0554 357.2114 0003833 130.9861 229.1460 15.06397014 65241","MEAN_MOTION_DOT":"-0.00001380","OBJECT_NAME":"STARLINK-1899","SEMIMAJOR_AXIS":"6925.358","CENTER_NAME":"EARTH","LAUNCH_DATE":"2020-10-24","TIME_SYSTEM":"UTC","INCLINATION":"53.0554","MEAN_ELEMENT_THEORY":"SGP4","SITE":"AFETR","EPOCH":"2021-12-22T09:51:41.131008","DECAY_DATE":null}];
